CCSDS_OMM_VERS = 2.0
CREATION_DATE  = 
ORIGINATOR     = 

OBJECT_NAME    = STARLINK-35955
OBJECT_ID      = 2025-271U
CENTER_NAME    = EARTH
REF_FRAME      = TEME
TIME_SYSTEM    = UTC
MEAN_ELEMENT_THEORY = SGP/SGP4

EPOCH          = 2025-12-08T06:00:02.999808
MEAN_MOTION    = 15.69410708
ECCENTRICITY   = .00009354
INCLINATION    = 53.1590
RA_OF_ASC_NODE = 208.9619
ARG_OF_PERICENTER = 89.1024
MEAN_ANOMALY   = 10.5502

EPHEMERIS_TYPE = 0
CLASSIFICATION_TYPE = U
NORAD_CAT_ID   = 66635
ELEMENT_SET_NO = 999
REV_AT_EPOCH   = 352
BSTAR          = -.18686977E-1
MEAN_MOTION_DOT = -.1974843E-1
MEAN_MOTION_DDOT = 0

CCSDS_OMM_VERS = 2.0
CREATION_DATE  = 
ORIGINATOR     = 

OBJECT_NAME    = STARLINK-35968
OBJECT_ID      = 2025-271V
CENTER_NAME    = EARTH
REF_FRAME      = TEME
TIME_SYSTEM    = UTC
MEAN_ELEMENT_THEORY = SGP/SGP4

EPOCH          = 2025-12-08T06:00:02.999808
MEAN_MOTION    = 15.69401745
ECCENTRICITY   = .00011044
INCLINATION    = 53.1593
RA_OF_ASC_NODE = 208.9576
ARG_OF_PERICENTER = 72.5754
MEAN_ANOMALY   = 28.9958

EPHEMERIS_TYPE = 0
CLASSIFICATION_TYPE = U
NORAD_CAT_ID   = 66636
ELEMENT_SET_NO = 999
REV_AT_EPOCH   = 352
BSTAR          = -.18537895E-1
MEAN_MOTION_DOT = -.196041E-1
MEAN_MOTION_DDOT = 0

CCSDS_OMM_VERS = 2.0
CREATION_DATE  = 
ORIGINATOR     = 

OBJECT_NAME    = STARLINK-35953
OBJECT_ID      = 2025-271W
CENTER_NAME    = EARTH
REF_FRAME      = TEME
TIME_SYSTEM    = UTC
MEAN_ELEMENT_THEORY = SGP/SGP4

EPOCH          = 2025-12-08T06:00:02.999808
MEAN_MOTION    = 15.69411388
ECCENTRICITY   = .00009461
INCLINATION    = 53.1590
RA_OF_ASC_NODE = 208.9543
ARG_OF_PERICENTER = 91.0595
MEAN_ANOMALY   = 12.4244

EPHEMERIS_TYPE = 0
CLASSIFICATION_TYPE = U
NORAD_CAT_ID   = 66637
ELEMENT_SET_NO = 999
REV_AT_EPOCH   = 352
BSTAR          = -.18676279E-1
MEAN_MOTION_DOT = -.1973903E-1
MEAN_MOTION_DDOT = 0

CCSDS_OMM_VERS = 2.0
CREATION_DATE  = 
ORIGINATOR     = 

OBJECT_NAME    = STARLINK-35972
OBJECT_ID      = 2025-271X
CENTER_NAME    = EARTH
REF_FRAME      = TEME
TIME_SYSTEM    = UTC
MEAN_ELEMENT_THEORY = SGP/SGP4

EPOCH          = 2025-12-08T06:00:02.999808
MEAN_MOTION    = 15.69409806
ECCENTRICITY   = .00008627
INCLINATION    = 53.1592
RA_OF_ASC_NODE = 208.9503
ARG_OF_PERICENTER = 83.5468
MEAN_ANOMALY   = 21.8508

EPHEMERIS_TYPE = 0
CLASSIFICATION_TYPE = U
NORAD_CAT_ID   = 66638
ELEMENT_SET_NO = 999
REV_AT_EPOCH   = 352
BSTAR          = -.18616796E-1
MEAN_MOTION_DOT = -.196818E-1
MEAN_MOTION_DDOT = 0

CCSDS_OMM_VERS = 2.0
CREATION_DATE  = 
ORIGINATOR     = 

OBJECT_NAME    = STARLINK-35908
OBJECT_ID      = 2025-271Y
CENTER_NAME    = EARTH
REF_FRAME      = TEME
TIME_SYSTEM    = UTC
MEAN_ELEMENT_THEORY = SGP/SGP4

EPOCH          = 2025-12-08T06:00:02.999808
MEAN_MOTION    = 15.69410924
ECCENTRICITY   = .0000939
INCLINATION    = 53.1591
RA_OF_ASC_NODE = 208.9458
ARG_OF_PERICENTER = 87.0431
MEAN_ANOMALY   = 20.2764

EPHEMERIS_TYPE = 0
CLASSIFICATION_TYPE = U
NORAD_CAT_ID   = 66639
ELEMENT_SET_NO = 999
REV_AT_EPOCH   = 352
BSTAR          = -.18687243E-1
MEAN_MOTION_DOT = -.1974886E-1
MEAN_MOTION_DDOT = 0

CCSDS_OMM_VERS = 2.0
CREATION_DATE  = 
ORIGINATOR     = 

OBJECT_NAME    = STARLINK-35921
OBJECT_ID      = 2025-271Z
CENTER_NAME    = EARTH
REF_FRAME      = TEME
TIME_SYSTEM    = UTC
MEAN_ELEMENT_THEORY = SGP/SGP4

EPOCH          = 2025-12-08T06:00:02.999808
MEAN_MOTION    = 15.69408615
ECCENTRICITY   = .00010314
INCLINATION    = 53.1591
RA_OF_ASC_NODE = 208.9424
ARG_OF_PERICENTER = 75.2040
MEAN_ANOMALY   = 34.0316

EPHEMERIS_TYPE = 0
CLASSIFICATION_TYPE = U
NORAD_CAT_ID   = 66640
ELEMENT_SET_NO = 999
REV_AT_EPOCH   = 352
BSTAR          = -.18641926E-1
MEAN_MOTION_DOT = -.1970562E-1
MEAN_MOTION_DDOT = 0

CCSDS_OMM_VERS = 2.0
CREATION_DATE  = 
ORIGINATOR     = 

OBJECT_NAME    = STARLINK-35923
OBJECT_ID      = 2025-271AA
CENTER_NAME    = EARTH
REF_FRAME      = TEME
TIME_SYSTEM    = UTC
MEAN_ELEMENT_THEORY = SGP/SGP4

EPOCH          = 2025-12-08T06:00:02.999808
MEAN_MOTION    = 15.69409162
ECCENTRICITY   = .00010367
INCLINATION    = 53.1590
RA_OF_ASC_NODE = 208.9255
ARG_OF_PERICENTER = 88.0569
MEAN_ANOMALY   = 28.8435

EPHEMERIS_TYPE = 0
CLASSIFICATION_TYPE = U
NORAD_CAT_ID   = 66641
ELEMENT_SET_NO = 999
REV_AT_EPOCH   = 352
BSTAR          = -.18633323E-1
MEAN_MOTION_DOT = -.1969803E-1
MEAN_MOTION_DDOT = 0

CCSDS_OMM_VERS = 2.0
CREATION_DATE  = 
ORIGINATOR     = 

OBJECT_NAME    = STARLINK-35926
OBJECT_ID      = 2025-271AB
CENTER_NAME    = EARTH
REF_FRAME      = TEME
TIME_SYSTEM    = UTC
MEAN_ELEMENT_THEORY = SGP/SGP4

EPOCH          = 2025-12-08T06:00:02.999808
MEAN_MOTION    = 15.69402291
ECCENTRICITY   = .0001076
INCLINATION    = 53.1589
RA_OF_ASC_NODE = 208.9302
ARG_OF_PERICENTER = 72.6638
MEAN_ANOMALY   = 42.3315

EPHEMERIS_TYPE = 0
CLASSIFICATION_TYPE = U
NORAD_CAT_ID   = 66642
ELEMENT_SET_NO = 999
REV_AT_EPOCH   = 328
BSTAR          = -.18624E-1
MEAN_MOTION_DOT = -.1968464E-1
MEAN_MOTION_DDOT = 0

CCSDS_OMM_VERS = 2.0
CREATION_DATE  = 
ORIGINATOR     = 

OBJECT_NAME    = STARLINK-35918
OBJECT_ID      = 2025-271AC
CENTER_NAME    = EARTH
REF_FRAME      = TEME
TIME_SYSTEM    = UTC
MEAN_ELEMENT_THEORY = SGP/SGP4

EPOCH          = 2025-12-08T06:00:02.999808
MEAN_MOTION    = 15.69408566
ECCENTRICITY   = .00010277
INCLINATION    = 53.1591
RA_OF_ASC_NODE = 208.9387
ARG_OF_PERICENTER = 73.7179
MEAN_ANOMALY   = 37.4347

EPHEMERIS_TYPE = 0
CLASSIFICATION_TYPE = U
NORAD_CAT_ID   = 66643
ELEMENT_SET_NO = 999
REV_AT_EPOCH   = 352
BSTAR          = -.18642938E-1
MEAN_MOTION_DOT = -.197065E-1
MEAN_MOTION_DDOT = 0

CCSDS_OMM_VERS = 2.0
CREATION_DATE  = 
ORIGINATOR     = 

OBJECT_NAME    = STARLINK-35938
OBJECT_ID      = 2025-271AD
CENTER_NAME    = EARTH
REF_FRAME      = TEME
TIME_SYSTEM    = UTC
MEAN_ELEMENT_THEORY = SGP/SGP4

EPOCH          = 2025-12-08T06:00:02.999808
MEAN_MOTION    = 15.69401559
ECCENTRICITY   = .00009418
INCLINATION    = 53.1592
RA_OF_ASC_NODE = 208.9344
ARG_OF_PERICENTER = 82.4941
MEAN_ANOMALY   = 30.5804

EPHEMERIS_TYPE = 0
CLASSIFICATION_TYPE = U
NORAD_CAT_ID   = 66644
ELEMENT_SET_NO = 999
REV_AT_EPOCH   = 352
BSTAR          = -.18562104E-1
MEAN_MOTION_DOT = -.1962536E-1
MEAN_MOTION_DDOT = 0

CCSDS_OMM_VERS = 2.0
CREATION_DATE  = 
ORIGINATOR     = 

OBJECT_NAME    = SHENZHOU-22
OBJECT_ID      = 2025-272A
CENTER_NAME    = EARTH
REF_FRAME      = TEME
TIME_SYSTEM    = UTC
MEAN_ELEMENT_THEORY = SGP/SGP4

EPOCH          = 2025-12-08T07:04:12.884448
MEAN_MOTION    = 15.58883062
ECCENTRICITY   = .00091533
INCLINATION    = 41.4681
RA_OF_ASC_NODE = 43.6887
ARG_OF_PERICENTER = 354.9466
MEAN_ANOMALY   = 5.1278

EPHEMERIS_TYPE = 0
CLASSIFICATION_TYPE = U
NORAD_CAT_ID   = 66645
ELEMENT_SET_NO = 999
REV_AT_EPOCH   = 26300
BSTAR          = .309658E-3
MEAN_MOTION_DOT = .24468E-3
MEAN_MOTION_DDOT = 0

CCSDS_OMM_VERS = 2.0
CREATION_DATE  = 
ORIGINATOR     = 

OBJECT_NAME    = CZ-2F R/B
OBJECT_ID      = 2025-272B
CENTER_NAME    = EARTH
REF_FRAME      = TEME
TIME_SYSTEM    = UTC
MEAN_ELEMENT_THEORY = SGP/SGP4

EPOCH          = 2025-12-07T13:00:15.028704
MEAN_MOTION    = 16.47453798
ECCENTRICITY   = .002214
INCLINATION    = 41.4535
RA_OF_ASC_NODE = 41.9834
ARG_OF_PERICENTER = 229.6731
MEAN_ANOMALY   = 130.2205

EPHEMERIS_TYPE = 0
CLASSIFICATION_TYPE = U
NORAD_CAT_ID   = 66646
ELEMENT_SET_NO = 999
REV_AT_EPOCH   = 200
BSTAR          = .15075E-3
MEAN_MOTION_DOT = .11903621E+0
MEAN_MOTION_DDOT = .80762E-5

