STARLINK-35955          
1 66635U 25271U   25342.25003472 -.01974843  00000+0 -18687-1 0  9990
2 66635  53.1590 208.9619 0000935  89.1024  10.5502 15.69410708  3521
STARLINK-35968          
1 66636U 25271V   25342.25003472 -.01960410  00000+0 -18538-1 0  9991
2 66636  53.1593 208.9576 0001104  72.5754  28.9958 15.69401745  3521
STARLINK-35953          
1 66637U 25271W   25342.25003472 -.01973903  00000+0 -18676-1 0  9996
2 66637  53.1590 208.9543 0000946  91.0595  12.4244 15.69411388  3525
STARLINK-35972          
1 66638U 25271X   25342.25003472 -.01968180  00000+0 -18617-1 0  9993
2 66638  53.1592 208.9503 0000862  83.5468  21.8508 15.69409806  3525
STARLINK-35908          
1 66639U 25271Y   25342.25003472 -.01974886  00000+0 -18687-1 0  9991
2 66639  53.1591 208.9458 0000939  87.0431  20.2764 15.69410924  3528
STARLINK-35921          
1 66640U 25271Z   25342.25003472 -.01970562  00000+0 -18642-1 0  9991
2 66640  53.1591 208.9424 0001031  75.2040  34.0316 15.69408615  3522
STARLINK-35923          
1 66641U 25271AA  25342.25003472 -.01969803  00000+0 -18633-1 0  9998
2 66641  53.1590 208.9255 0001036  88.0569  28.8435 15.69409162  3528
STARLINK-35926          
1 66642U 25271AB  25342.25003472 -.01968464  00000+0 -18624-1 0  9991
2 66642  53.1589 208.9302 0001076  72.6638  42.3315 15.69402291  3287
STARLINK-35918          
1 66643U 25271AC  25342.25003472 -.01970650  00000+0 -18643-1 0  9993
2 66643  53.1591 208.9387 0001027  73.7179  37.4347 15.69408566  3520
STARLINK-35938          
1 66644U 25271AD  25342.25003472 -.01962536  00000+0 -18562-1 0  9998
2 66644  53.1592 208.9344 0000941  82.4941  30.5804 15.69401559  3520
SHENZHOU-22             
1 66645U 25272A   25342.29459357  .00024468  00000+0  30966-3 0  9995
2 66645  41.4681  43.6887 0009153 354.9466   5.1278 15.58883062263004
CZ-2F R/B               
1 66646U 25272B   25341.54184061  .11903621  80762-5  15075-3 0  9992
2 66646  41.4535  41.9834 0022140 229.6731 130.2205 16.47453798  2009
